STARLINK-32564          
1 61924U 24207N   26068.00867974  .00028860  00000+0  10535-2 0  9999
2 61924  43.0030 289.4151 0002426 269.0259  91.0314 15.27599240 74576
PELICAN-6               
1 66703U 25276AP  26068.70709364  .00077979  00000+0  29726-2 0  9998
2 66703  97.4276 144.2072 0003569 157.8575 202.2819 15.26377980 15334
